QB50P1                  
1 40025U 14033R   26158.52731635  .00008742  00000+0  43186-3 0  9991
2 40025  98.0971 168.9970 0007105 254.5294 105.5153 15.18113251651562
DTUSAT-2                
1 40030U 14033W   26158.72675274  .00007885  00000+0  42719-3 0  9993
2 40030  98.0866 155.8544 0006114 265.2634  94.7898 15.14898995651251
QB50P2                  
1 40032U 14033Y   26158.72190377  .00007894  00000+0  42589-3 0  9996
2 40032  98.0757 155.0140 0007012 194.1636 165.9399 15.15039841651239
PERSEUS-M1              
1 40039U 14033AF  26158.73662502  .00002520  00000+0  23216-3 0  9995
2 40039  97.9642 102.7138 0010804 337.5160  22.5585 14.95606831649228
POLYITAN-1              
1 40042U 14033AJ  26158.58824355  .00018293  00000+0  57680-3 0  9994
2 40042  98.0953 183.9437 0007933 169.6269 190.5136 15.32921473652120
TIGRISAT                
1 40043U 14033AK  26158.68338074  .00002773  00000+0  32300-3 0  9992
2 40043  97.7825 308.9139 0050710 105.5301 255.1521 14.85125541644216
CANX-4                  
1 40055U 14034C   26158.62721970  .00001184  00000+0  15914-3 0  9998
2 40055  98.3133  33.5889 0013773  46.0700 314.1646 14.81248196643111
CANX-5                  
1 40056U 14034D   26158.62576368  .00001190  00000+0  15984-3 0  9992
2 40056  98.3136  33.6304 0013767  46.2377 313.9971 14.81265325633922
GONETS-M 10             
1 40063U 14036C   26158.81370536  .00000080  00000+0  50278-3 0  9994
2 40063  82.5113 313.4977 0022267 160.4031 199.7909 12.42945412541089
METEOR-M 2              
1 40069U 14037A   26158.85411093  .00000065  00000+0  48958-4 0  9995
2 40069  98.5115 134.9234 0007016  67.0448 293.1470 14.21458252617991
DX1                     
1 40071U 14037C   26158.89243647  .00001609  00000+0  17351-3 0  9997
2 40071  98.3866 120.0305 0006183 311.6352  48.4334 14.89955832644727
UKUBE-1                 
1 40074U 14037F   26158.64786591  .00008908  00000+0  50306-3 0  9999
2 40074  98.4242 160.9187 0002056 144.3716 215.7650 15.13401371647118
GAOFEN-2                
1 40118U 14049A   26158.85198506  .00000128  00000+0  23501-4 0  9991
2 40118  98.0107 223.0678 0005870 264.7693  95.2849 14.80886966637858
BRITE-PL2 (HEWELIUSZ)   
1 40119U 14049B   26158.26377524  .00003014  00000+0  28361-3 0  9991
2 40119  97.9087 270.1883 0015105 138.2185 222.0191 14.94560188639962
CBERS 4                 
1 40336U 14079A   26158.83654831  .00000120  00000+0  56322-4 0  9991
2 40336  98.3530 215.9613 0002046  71.7314 288.4095 14.35506569602613
SMAP                    
1 40376U 15003A   26158.78068464  .00000530  00000+0  11174-3 0  9998
2 40376  98.1276 166.0085 0001262  92.7492 267.3854 14.63358808606244
GONETS-M 11             
1 40552U 15020A   26158.91214028 -.00000064  00000+0 -53298-3 0  9994
2 40552  82.4873  36.7713 0017001  25.2261 334.9645 12.42876481507586
GONETS-M 12             
1 40553U 15020B   26158.80523701 -.00000029  00000+0 -27774-3 0  9995
2 40553  82.4907  37.9592 0015782  11.0009 349.1413 12.42890777507563
GONETS-M 13             
1 40554U 15020C   26158.85905860 -.00000039  00000+0 -34910-3 0  9992
2 40554  82.4869  36.5435 0014114 356.6220   3.4762 12.42869708507548
DMC3-FM1                
1 40715U 15032A   26158.91130146  .00000759  00000+0  93315-4 0  9990
2 40715  97.6468  24.4493 0007147  83.6272 276.5758 14.85728096588531
DMC3-FM2                
1 40716U 15032B   26158.86603815  .00001302  00000+0  15580-3 0  9995
2 40716  97.6525  25.9734 0007720  88.2923 271.9177 14.85736448588524
DMC3-FM3                
1 40717U 15032C   26158.88929941  .00000468  00000+0  59881-4 0  9994
2 40717  97.6577  27.7429 0006880  87.1199 273.0804 14.85723560588534
CARBONITE 1 (CBNT-1)    
1 40718U 15032D   26158.80748774  .00002346  00000+0  29057-3 0  9998
2 40718  97.6510 337.2676 0013835 331.4835  28.5621 14.83561851587951
LILACSAT-2              
1 40908U 15049K   26158.85460367  .00018684  00000+0  32149-3 0  9999
2 40908  97.4658 195.3431 0005273 290.5121  69.5565 15.51138001594307
COSMOS 2507 (RODNIK-S *)
1 40920U 15050A   26158.89487582 -.00000007  00000+0 -12129-3 0  9995
2 40920  82.4921  85.4552 0010601  16.2045 343.9372 12.42926349485705
COSMOS 2508 (RODNIK-S *)
1 40921U 15050B   26158.84980589  .00000047  00000+0  26501-3 0  9997
2 40921  82.4874  83.9919 0015405  45.9838 314.2508 12.42913962485685
COSMOS 2509 (RODNIK-S *)
1 40922U 15050C   26158.78941543  .00000116  00000+0  76191-3 0  9995
2 40922  82.4883  84.1309 0015852  62.0663 298.2019 12.42883721485715
