OBJECT_NAME,OBJECT_ID,EPOCH,MEAN_MOTION,ECCENTRICITY,INCLINATION,RA_OF_ASC_NODE,ARG_OF_PERICENTER,MEAN_ANOMALY,EPHEMERIS_TYPE,CLASSIFICATION_TYPE,NORAD_CAT_ID,ELEMENT_SET_NO,REV_AT_EPOCH,BSTAR,MEAN_MOTION_DOT,MEAN_MOTION_DDOT
QB50P1,2014-033R,2026-06-07T12:39:20.132640,15.18113251,.0007105,98.0971,168.9970,254.5294,105.5153,0,U,40025,999,65156,.43186E-3,.8742E-4,0
DTUSAT-2,2014-033W,2026-06-07T17:26:31.436736,15.14898995,.0006114,98.0866,155.8544,265.2634,94.7898,0,U,40030,999,65125,.42719E-3,.7885E-4,0
QB50P2,2014-033Y,2026-06-07T17:19:32.485728,15.15039841,.0007012,98.0757,155.0140,194.1636,165.9399,0,U,40032,999,65123,.42589E-3,.7894E-4,0
PERSEUS-M1,2014-033AF,2026-06-07T17:40:44.401728,14.95606831,.0010804,97.9642,102.7138,337.5160,22.5585,0,U,40039,999,64922,.23216E-3,.252E-4,0
POLYITAN-1,2014-033AJ,2026-06-07T14:07:04.242720,15.32921473,.0007933,98.0953,183.9437,169.6269,190.5136,0,U,40042,999,65212,.5768E-3,.18293E-3,0
TIGRISAT,2014-033AK,2026-06-07T16:24:04.095936,14.85125541,.005071,97.7825,308.9139,105.5301,255.1521,0,U,40043,999,64421,.323E-3,.2773E-4,0
CANX-4,2014-034C,2026-06-07T15:03:11.782080,14.81248196,.0013773,98.3133,33.5889,46.0700,314.1646,0,U,40055,999,64311,.15914E-3,.1184E-4,0
CANX-5,2014-034D,2026-06-07T15:01:05.981952,14.81265325,.0013767,98.3136,33.6304,46.2377,313.9971,0,U,40056,999,63392,.15984E-3,.119E-4,0
GONETS-M 10,2014-036C,2026-06-07T19:31:44.143104,12.42945412,.0022267,82.5113,313.4977,160.4031,199.7909,0,U,40063,999,54108,.50278E-3,.8E-6,0
METEOR-M 2,2014-037A,2026-06-07T20:29:55.184352,14.21458252,.0007016,98.5115,134.9234,67.0448,293.1470,0,U,40069,999,61799,.48958E-4,.65E-6,0
DX1,2014-037C,2026-06-07T21:25:06.511008,14.89955832,.0006183,98.3866,120.0305,311.6352,48.4334,0,U,40071,999,64472,.17351E-3,.1609E-4,0
UKUBE-1,2014-037F,2026-06-07T15:32:55.614624,15.13401371,.0002056,98.4242,160.9187,144.3716,215.7650,0,U,40074,999,64711,.50306E-3,.8908E-4,0
GAOFEN-2,2014-049A,2026-06-07T20:26:51.509184,14.80886966,.000587,98.0107,223.0678,264.7693,95.2849,0,U,40118,999,63785,.23501E-4,.128E-5,0
BRITE-PL2 (HEWELIUSZ),2014-049B,2026-06-07T06:19:50.180736,14.94560188,.0015105,97.9087,270.1883,138.2185,222.0191,0,U,40119,999,63996,.28361E-3,.3014E-4,0
CBERS 4,2014-079A,2026-06-07T20:04:37.773984,14.35506569,.0002046,98.3530,215.9613,71.7314,288.4095,0,U,40336,999,60261,.56322E-4,.12E-5,0
SMAP,2015-003A,2026-06-07T18:44:11.152896,14.63358808,.0001262,98.1276,166.0085,92.7492,267.3854,0,U,40376,999,60624,.11174E-3,.53E-5,0
GONETS-M 11,2015-020A,2026-06-07T21:53:28.920192,12.42876481,.0017001,82.4873,36.7713,25.2261,334.9645,0,U,40552,999,50758,-.53298E-3,-.64E-6,0
GONETS-M 12,2015-020B,2026-06-07T19:19:32.477664,12.42890777,.0015782,82.4907,37.9592,11.0009,349.1413,0,U,40553,999,50756,-.27774E-3,-.29E-6,0
GONETS-M 13,2015-020C,2026-06-07T20:37:02.663040,12.42869708,.0014114,82.4869,36.5435,356.6220,3.4762,0,U,40554,999,50754,-.3491E-3,-.39E-6,0
DMC3-FM1,2015-032A,2026-06-07T21:52:16.446144,14.85728096,.0007147,97.6468,24.4493,83.6272,276.5758,0,U,40715,999,58853,.93315E-4,.759E-5,0
DMC3-FM2,2015-032B,2026-06-07T20:47:05.696160,14.85736448,.000772,97.6525,25.9734,88.2923,271.9177,0,U,40716,999,58852,.1558E-3,.1302E-4,0
DMC3-FM3,2015-032C,2026-06-07T21:20:35.469024,14.85723560,.000688,97.6577,27.7429,87.1199,273.0804,0,U,40717,999,58853,.59881E-4,.468E-5,0
CARBONITE 1 (CBNT-1),2015-032D,2026-06-07T19:22:46.940736,14.83561851,.0013835,97.6510,337.2676,331.4835,28.5621,0,U,40718,999,58795,.29057E-3,.2346E-4,0
LILACSAT-2,2015-049K,2026-06-07T20:30:37.757088,15.51138001,.0005273,97.4658,195.3431,290.5121,69.5565,0,U,40908,999,59430,.32149E-3,.18684E-3,0
COSMOS 2507 (RODNIK-S 13),2015-050A,2026-06-07T21:28:37.270848,12.42926349,.0010601,82.4921,85.4552,16.2045,343.9372,0,U,40920,999,48570,-.12129E-3,-.7E-7,0
COSMOS 2508 (RODNIK-S 14),2015-050B,2026-06-07T20:23:43.228896,12.42913962,.0015405,82.4874,83.9919,45.9838,314.2508,0,U,40921,999,48568,.26501E-3,.47E-6,0
COSMOS 2509 (RODNIK-S 15),2015-050C,2026-06-07T18:56:45.493152,12.42883721,.0015852,82.4883,84.1309,62.0663,298.2019,0,U,40922,999,48571,.76191E-3,.116E-5,0
